OPTICUBE 04             
1 41851U 16067D   18168.85963599  .00000669  00000-0  63956-4 0  9991
2 41851  97.9239 256.9880 0009691 154.0287 206.1422 14.96672652 87190
AEROCUBE 8D             
1 41852U 16067E   18168.49535639 -.00000213  00000-0 -13437-4 0  9998
2 41852  97.9248 256.4630 0010151 157.4644 202.7024 14.96495210 87122
AEROCUBE 8C             
1 41853U 16067F   18168.30893260  .00000235  00000-0  26007-4 0  9995
2 41853  97.9245 256.2369 0010680 159.2875 200.8781 14.96457454 87093
PROMETHEUS 2-1          
1 41854U 16067G   18168.24853781  .00000594  00000-0  57505-4 0  9998
2 41854  97.9252 256.1844 0011126 158.8938 201.2744 14.96562732 87089
PROMETHEUS 2-3          
1 41855U 16067H   18168.78606130  .00000762  00000-0  72235-4 0  9996
2 41855  97.9257 256.7332 0011357 157.2699 202.9027 14.96561785 87164
ITF-2                   
1 41932U 98067KU  18168.68455519  .00025557  00000-0  16208-3 0  9990
2 41932  51.6328 338.2805 0003850 208.4119 151.6672 15.76344918 80842
WASEDA-SAT3             
1 41933U 98067KV  18168.46918992  .00044868  00000-0  20682-3 0  9993
2 41933  51.6346 332.1868 0003406 226.0130 134.0592 15.83089466 80906
AOBA-VELOX 3            
1 41935U 98067KX  18168.50961529  .00035878  00000-0  18826-3 0  9992
2 41935  51.6362 334.8015 0003700 218.0644 142.0096 15.80394331 80979
INS-1B                  
1 41954U 17008G   18168.45204524  .00000957  00000-0  43681-4 0  9996
2 41954  97.4460 232.4150 0009300   3.4659 356.6640 15.23010291 74040
BGUSAT                  
1 41999U 17008BD  18168.35919024  .00001564  00000-0  66333-4 0  9996
2 41999  97.4506 233.3807 0008901  22.6166 337.5462 15.24593821 73451
DIDO-2                  
1 42000U 17008BE  18168.45945008  .00000711  00000-0  33034-4 0  9997
2 42000  97.4478 232.8541 0009127  22.4019 337.7614 15.23198353 73448
PEASSS                  
1 42015U 17008BV  18168.43772471  .00000862  00000-0  38519-4 0  9993
2 42015  97.4475 233.2894 0007260  32.3776 327.7905 15.24009158 73956
AL-FARABI 1             
1 42016U 17008BW  18168.43029486  .00001117  00000-0  48469-4 0  9994
2 42016  97.4483 233.4796 0007161  32.9591 327.2092 15.24422720 74081
NAYIF-1 (EO-88)         
1 42017U 17008BX  18168.42454438  .00001092  00000-0  47429-4 0  9990
2 42017  97.4481 233.4805 0007137  33.2823 326.8861 15.24446608 74109
HAVELSAT                
1 42700U 98067LH  18168.72061874  .00021338  00000-0  16944-3 0  9996
2 42700  51.6359 352.0507 0003833 242.2797 117.7812 15.71200129 62100
CXBN-2                  
1 42704U 98067LM  18167.91506455  .00022108  00000-0  17896-3 0  9992
2 42704  51.6361 357.1890 0002434 178.1202 181.9805 15.70716774 61888
ICECUBE                 
1 42705U 98067LN  18168.76536655  .00054702  00000-0  29483-3 0  9992
2 42705  51.6457 344.9399 0002545 228.1564 131.9221 15.79616717 62189
PHOENIX                 
1 42706U 98067LP  18168.74375744  .00015056  00000-0  13166-3 0  9991
2 42706  51.6362 353.7178 0001653 177.9933 182.1071 15.69156695 61990
X-CUBESAT               
1 42707U 98067LQ  18168.76483684  .00023775  00000-0  18411-3 0  9992
2 42707  51.6325 351.5294 0001844 190.9705 169.1253 15.71730329 62015
QBEE50-LTU-OC           
1 42708U 98067LR  18168.77572220  .00022549  00000-0  18129-3 0  9993
2 42708  51.6368 352.4140 0001756 189.1152 170.9814 15.70867497 61963
ALTAIR PATHFINDER       
1 42711U 98067LS  18168.51173291  .00009355  00000-0  10115-3 0  9991
2 42711  51.6369   1.9356 0004088 174.9239 185.1798 15.64389457 61521
SHARC                   
1 42712U 98067LT  18168.83437108  .00016397  00000-0  17373-3 0  9994
2 42712  51.6386   1.8976 0002919 183.5045 176.5930 15.64270624 61796
ZA-AEROSAT              
1 42713U 98067LU  18168.77304453  .00014636  00000-0  13511-3 0  9998
2 42713  51.6356 356.1524 0002674 167.8697 192.2364 15.67847513 61623
LINK                    
1 42714U 98067LV  18168.76937406  .00055310  00000-0  28882-3 0  9999
2 42714  51.6260 344.6849 0002669 207.9165 152.1693 15.80306830 61885
CSUNSAT 1               
1 42715U 98067LW  18168.79200766  .00016300  00000-0  14624-3 0  9990
2 42715  51.6364 355.5493 0004137 172.5186 187.5873 15.68447867 61636
SPACECUBE               
1 42717U 98067LY  18168.73831713  .00021826  00000-0  17619-3 0  9994
2 42717  51.6341 352.8912 0002759 235.8854 124.1883 15.70791592 61034
HOOPOE                  
1 42718U 98067LZ  18168.83362521  .00029713  00000-0  21258-3 0  9999
2 42718  51.6356 349.7795 0002731 235.4568 124.6173 15.73465761 61084
CHALLENGER              
1 42721U 98067MA  18168.73266624  .00103457  00000-0  38172-3 0  9990
2 42721  51.6284 339.9025 0005981 254.2607 105.7739 15.87369397 60909
NJUST-1                 
1 42722U 98067MB  18168.83396932  .00013319  00000-0  12819-3 0  9995
2 42722  51.6365 357.3315 0005172 225.9499 134.1071 15.66895984 60685
UNSW-ECO                
1 42723U 98067MC  18168.77053911  .00031127  00000-0  21566-3 0  9992
2 42723  51.6384 350.1405 0004787 226.8021 133.2578 15.74181747 60754
LILACSAT-1              
1 42725U 98067ME  18168.87484226  .00019822  00000-0  17011-3 0  9990
2 42725  51.6365 354.5950 0004289 226.5047 133.5593 15.69374574 60622
NSIGHT-1                
1 42726U 98067MF  18168.76159382  .00004610  00000-0  58764-4 0  9991
2 42726  51.6395   4.4118 0004848 228.0962 131.9619 15.61521267 60498
SNUSAT-1                
1 42727U 98067MG  18167.80385077  .00019316  00000-0  16653-3 0  9997
2 42727  51.6344   0.1399 0006229 190.4998 169.5870 15.69271596 60427
I-INSPIRE II            
1 42731U 98067ML  18168.76334481  .00031873  00000-0  21495-3 0  9993
2 42731  51.6350 349.2646 0005388 190.3323 169.7566 15.74791473 60541
POLYITAN-2-SAU          
1 42732U 98067MM  18168.83383761  .00023805  00000-0  18595-3 0  9990
2 42732  51.6353 352.0264 0005564 184.3883 175.7067 15.71509488 60513
SNUSAT-1B               
1 42733U 98067MN  18168.79414566  .00021597  00000-0  18004-3 0  9995
2 42733  51.6358 354.0300 0005755 185.6757 174.4176 15.70009472 60488
EXALTA-1                
1 42734U 98067MP  18168.74564601  .00033421  00000-0  21901-3 0  9996
2 42734  51.6311 349.1175 0006078 213.8023 146.2590 15.75423871 60498
BEEAGLESAT              
1 42736U 98067MR  18168.72769853  .00016788  00000-0  14919-3 0  9990
2 42736  51.6356 355.8362 0005398 223.5814 136.4757 15.68650225 60517
UCLSAT                  
1 42765U 17036A   18168.40633495  .00000889  00000-0  42079-4 0  9990
2 42765  97.4008 228.2517 0013574  78.2834 281.9925 15.21852182 54744
LITUANICASAT-2          
1 42768U 17036D   18168.39793477  .00001575  00000-0  73108-4 0  9998
2 42768  97.4024 227.8436 0017378  68.7539 291.5551 15.21375164 54597
AALTO-1                 
1 42775U 17036L   18168.36208410  .00000582  00000-0  29478-4 0  9999
2 42775  97.4002 227.6968 0015810  67.1856 293.1047 15.20751131 54525
URSA MAIOR              
1 42776U 17036M   18168.41444666  .00000682  00000-0  33931-4 0  9991
2 42776  97.4008 227.7991 0015659  67.2854 293.0035 15.20828876 54537
COMPASS 2               
1 42777U 17036N   18168.47205707  .00001210  00000-0  56353-4 0  9990
2 42777  97.4029 228.2426 0014632  70.5152 289.7663 15.21733671 54558
DIAMOND RED             
1 42783U 17036U   18168.14224756  .00000773  00000-0  37390-4 0  9999
2 42783  97.4009 227.8486 0014169  78.9975 281.2854 15.21459591 54504
PEGASUS                 
1 42784U 17036V   18168.37804423  .00000872  00000-0  41541-4 0  9993
2 42784  97.4011 228.1501 0014074  78.2709 282.0105 15.21662194 54540
DIAMOND GREEN           
1 42785U 17036W   18168.14113611  .00000788  00000-0  38052-4 0  9990
2 42785  97.4012 227.8607 0014067  79.4176 280.8643 15.21462001 54579
DIAMOND BLUE            
1 42786U 17036X   18168.40334748  .00000777  00000-0  37576-4 0  9994
2 42786  97.4011 228.1187 0013904  78.8748 281.4050 15.21461936 54534
NUDTSAT                 
1 42787U 17036Y   18168.42774245  .00001278  00000-0  58493-4 0  9995
2 42787  97.4019 228.4002 0013627  78.0504 282.2259 15.22237823 54409
SUCHAI                  
1 42788U 17036Z   18168.72975739  .00001050  00000-0  49023-4 0  9997
2 42788  97.4013 228.5943 0013690  77.1378 283.1387 15.21931373 54679
SKCUBE                  
1 42789U 17036AA  18168.46618914  .00000987  00000-0  46315-4 0  9997
2 42789  97.4010 228.3297 0013525  77.9386 282.3365 15.21893467 54556
VZLUSAT-1               
1 42790U 17036AB  18168.21984291  .00001301  00000-0  59485-4 0  9999
2 42790  97.4015 228.2033 0013198  79.0988 281.1733 15.22258113 54524
ROBUSTA-1B              
1 42792U 17036AD  18168.82929674  .00001039  00000-0  48399-4 0  9992
2 42792  97.4009 228.7494 0013101  77.8404 282.4299 15.22036091 54629
CICERO 6                
1 42793U 17036AE  18168.36337091  .00000713  00000-0  34356-4 0  9994
2 42793  97.4002 228.2873 0012263  80.3421 279.9200 15.21876499 54621
D-SAT                   
1 42794U 17036AF  18168.37906140  .00000165  00000-0  20214-4 0  9992
2 42794  97.5914 223.0291 0125511 281.7678  76.9483 14.90871836 53750
TOKI                    
1 42820U 98067MU  18168.79839424  .00016980  00000-0  15639-3 0  9997
2 42820  51.6358 357.8169 0003341 163.1545 196.9563 15.67765353 53950
MAZAALAI (NUMSAT-1)     
1 42822U 98067MW  18168.51330227  .00016106  00000-0  15037-3 0  9998
2 42822  51.6357 359.6685 0003336 165.6187 194.4905 15.67474463 53904
BRAC ONNESHA            
1 42823U 98067MX  18167.93553961  .00017227  00000-0  15992-3 0  9991
2 42823  51.6362   2.5779 0005468 183.7676 176.3280 15.67548672 53810
NIGERIAEDUSAT-1         
1 42824U 98067MY  18168.78854867  .00016341  00000-0  15307-3 0  9991
2 42824  51.6367 358.5405 0005308 187.3015 172.7905 15.67372314 53919
CORVUS BC2              
1 42846U 17042X   18168.54180331  .00000305  00000-0  35504-4 0  9996
2 42846  97.5974  71.4031 0009277 186.3039 173.8065 14.91820423 50423
